STARLINK-2750           
1 48691U 21044BF  26127.29736200 -.00005528  00000+0 -16654-3 0  9992
2 48691  53.1603 162.8011 0001539  84.9896 275.1281 15.31693879273335
STARLINK-2752           
1 48692U 21044BG  26127.25073354 -.00000103  00000+0  84462-5 0  9990
2 48692  53.1587 162.8088 0001036  85.9725 274.1395 15.31700692273332
STARLINK-2618           
1 48693U 21044BH  26127.24177555 -.00008001  00000+0 -24656-3 0  9991
2 48693  53.1577 162.9924 0001067  33.3763 326.7305 15.31669827273334
STARLINK-2748           
1 48694U 21044BJ  26127.10237001 -.00002207  00000+0 -59373-4 0  9997
2 48694  53.1599 166.8851 0001227  98.0081 262.1060 15.31699015273265
STARLINK-2616           
1 48695U 21044BK  26127.11193901  .00001744  00000+0  67946-4 0  9997
2 48695  53.1577 166.1510 0000867  83.8164 276.2937 15.31704829273281
STARLINK-2753           
1 48696U 21044BL  26127.29150842  .00002380  00000+0  88474-4 0  9990
2 48696  53.1573 176.1138 0003719 123.9118 236.2237 15.31696543273157
ONEWEB-0211             
1 48767U 21045A   26127.29219741  .00000089  00000+0  20032-3 0  9993
2 48767  87.8969 267.2430 0001357  78.9560 281.1723 13.16194429239060
ONEWEB-0223             
1 48768U 21045B   26126.89414412  .00000109  00000+0  25629-3 0  9991
2 48768  87.8972 267.4193 0001667  82.9737 277.1583 13.15549131238979
ONEWEB-0230             
1 48769U 21045C   26126.94169403 -.00000036  00000+0 -13035-3 0  9994
2 48769  87.8965 267.4271 0001951 101.2461 258.8889 13.15553252239249
ONEWEB-0237             
1 48770U 21045D   26127.08270550  .00000149  00000+0  36251-3 0  9996
2 48770  87.8963 267.4012 0001869  90.1411 269.9934 13.15549518238985
ONEWEB-0235             
1 48771U 21045E   26127.13339048  .00000111  00000+0  26206-3 0  9999
2 48771  87.8976 267.3725 0001773  86.1449 273.9884 13.15549001238986
ONEWEB-0242             
1 48772U 21045F   26127.12704711  .00000084  00000+0  19007-3 0  9992
2 48772  87.8973 267.3705 0001942  94.2652 265.8700 13.15549293239022
ONEWEB-0241             
1 48773U 21045G   26127.11439642 -.00000047  00000+0 -15880-3 0  9996
2 48773  87.8965 267.3961 0001528  87.6135 272.5170 13.15548449238937
ONEWEB-0243             
1 48774U 21045H   26127.29819797  .00000194  00000+0  48086-3 0  9994
2 48774  87.8966 267.3709 0002204  87.9968 272.1415 13.15549842238989
ONEWEB-0222             
1 48775U 21045J   26127.12944397  .00000030  00000+0  46239-4 0  9990
2 48775  87.8972 267.3691 0001732  93.8886 266.2443 13.15548446239005
ONEWEB-0244             
1 48776U 21045K   26127.07952700  .00000185  00000+0  45644-3 0  9991
2 48776  87.8980 267.3713 0001852  94.2085 265.9257 13.15549720239565
ONEWEB-0247             
1 48777U 21045L   26127.15242602  .00000121  00000+0  28766-3 0  9990
2 48777  87.8968 267.3945 0002196  78.5425 281.5952 13.15548941239014
ONEWEB-0245             
1 48778U 21045M   26127.14766730  .00000142  00000+0  34413-3 0  9992
2 48778  87.8975 267.3708 0001607  97.3910 262.7403 13.15548623238988
ONEWEB-0229             
1 48779U 21045N   26127.14290509  .00000029  00000+0  42291-4 0  9997
2 48779  87.8977 267.3700 0001941  95.1578 264.9774 13.15548483239014
ONEWEB-0228             
1 48780U 21045P   26127.10027098 -.00000005  00000+0 -48230-4 0  9991
2 48780  87.8984 267.3680 0001790  94.8896 265.2439 13.15548994238920
ONEWEB-0232             
1 48781U 21045Q   26126.92266890  .00000054  00000+0  10871-3 0  9997
2 48781  87.8982 267.4059 0001760  98.8544 261.2785 13.15548610239220
ONEWEB-0231             
1 48782U 21045R   26127.12864956 -.00000001  00000+0 -35553-4 0  9997
2 48782  87.8963 267.3817 0001754  90.6260 269.5071 13.15549351238949
ONEWEB-0234             
1 48783U 21045S   26126.86229660 -.00000013  00000+0 -69466-4 0  9998
2 48783  87.8975 267.4146 0001191 122.2425 237.8821 13.15550499239047
ONEWEB-0238             
1 48784U 21045T   26127.09077118  .00000016  00000+0  93410-5 0  9992
2 48784  87.8978 267.3615 0001487 108.1220 252.0072 13.15549393238974
ONEWEB-0240             
1 48785U 21045U   26127.11201638 -.00000092  00000+0 -27781-3 0  9994
2 48785  87.8980 267.3673 0001603  89.9602 270.1712 13.15548520239000
ONEWEB-0246             
1 48786U 21045V   26127.10647088 -.00000160  00000+0 -45828-3 0  9995
2 48786  87.8977 267.3741 0001946  95.5986 264.5366 13.15548337238873
ONEWEB-0210             
1 48787U 21045W   26127.08112202  .00000134  00000+0  32311-3 0  9990
2 48787  87.8976 267.3761 0002472  81.8879 278.2532 13.15549084238911
ONEWEB-0214             
1 48788U 21045X   26127.08983363  .00000078  00000+0  17361-3 0  9990
2 48788  87.8978 267.3708 0002166  92.9514 267.1864 13.15548329238886
ONEWEB-0221             
1 48789U 21045Y   26127.09695091  .00000042  00000+0  78000-4 0  9999
2 48789  87.8977 267.3783 0001791  91.8561 268.2775 13.15550851238978
ONEWEB-0213             
1 48790U 21045Z   26127.08586906  .00000114  00000+0  26874-3 0  9995
2 48790  87.8975 267.3844 0001885  88.6233 271.5113 13.15549520239032
ONEWEB-0212             
1 48791U 21045AA  26127.13894915  .00000126  00000+0  29955-3 0  9990
2 48791  87.8975 267.3681 0001811 100.8214 259.3121 13.15547951239036
ONEWEB-0227             
1 48792U 21045AB  26127.13813965  .00000138  00000+0  33131-3 0  9991
2 48792  87.8971 267.3696 0001752  97.9179 262.2151 13.15549947238985
ONEWEB-0226             
1 48793U 21045AC  26127.13180978 -.00000221  00000+0 -62022-3 0  9999
2 48793  87.8968 267.3770 0002180  94.6968 265.4411 13.15547234238959
ONEWEB-0224             
1 48794U 21045AD  26126.86720384  .00000016  00000+0  88466-5 0  9992
2 48794  87.8964 267.4652 0000962  89.9569 270.1671 13.15548670238840
ONEWEB-0233             
1 48795U 21045AE  26127.09998345 -.00000011  00000+0 -63060-4 0  9992
2 48795  87.8965 267.4266 0001694  88.3523 271.7801 13.15550381238898
ONEWEB-0190             
1 48796U 21045AF  26127.08745387 -.00000016  00000+0 -75724-4 0  9993
2 48796  87.8967 267.3908 0001956  76.4207 283.7142 13.15548630238964
ONEWEB-0236             
1 48797U 21045AG  26127.10488560 -.00000439  00000+0 -12011-2 0  9991
2 48797  87.8975 267.3954 0001566  98.9920 261.1388 13.15550717238852
ONEWEB-0248             
1 48798U 21045AH  26127.11754598 -.00000085  00000+0 -26021-3 0  9994
2 48798  87.8976 267.3747 0001579  83.9246 276.2064 13.15551088239012
ONEWEB-0225             
1 48799U 21045AJ  26127.29183972  .00000157  00000+0  38328-3 0  9997
2 48799  87.8965 267.3506 0001873  81.3634 278.7708 13.15549621239049
ONEWEB-0215             
1 48800U 21045AK  26127.10964109 -.00000138  00000+0 -40139-3 0  9993
2 48800  87.8977 267.3660 0001802  75.4720 284.6610 13.15548314238896
ONEWEB-0216             
1 48801U 21045AL  26127.11914688 -.00000065  00000+0 -20615-3 0  9998
2 48801  87.8973 267.3802 0001896  99.3531 260.7813 13.15548453238905
ONEWEB-0239             
1 48802U 21045AM  26127.12388544  .00000069  00000+0  14989-3 0  9995
2 48802  87.8962 267.3897 0001516  71.4598 288.6697 13.15549520238940
FENGYUN 4B              
1 48808U 21047A   26127.17336150 -.00000321  00000+0  00000+0 0  9991
2 48808   0.0577  65.3843 0005413 310.6092  15.9479  1.00265072 18166
SXM-8                   
1 48838U 21049A   26127.18749885 -.00000198  00000+0  00000+0 0  9992
2 48838   0.0362  50.3069 0004645 350.5009 166.5947  1.00271013 18178
NAVSTAR 81 (USA 319)    
1 48859U 21054A   26125.37706295 -.00000079  00000+0  00000+0 0  9996
2 48859  55.1936 334.1809 0024150 229.4181 306.9589  2.00572104 35898
YAOGAN-30 10A           
1 48860U 21055A   26127.20664663  .00002866  00000+0  21369-3 0  9995
2 48860  34.9961  41.9673 0002589  64.6881 295.4095 15.02487256267017
YAOGAN-30 10B           
1 48861U 21055B   26127.18511052  .00002689  00000+0  20070-3 0  9997
2 48861  34.9960  41.7303 0002925  75.3521 284.7511 15.02478102267002
YAOGAN-30 10C           
1 48863U 21055D   26127.21773948  .00002500  00000+0  18672-3 0  9994
2 48863  34.9964  41.1935 0003157 183.0842 176.9847 15.02489926266722
TIANQI-14               
1 48864U 21055E   26126.95988765  .00005595  00000+0  30993-3 0  9997
2 48864  35.0004 333.9260 0005897 309.3070  50.7119 15.13178363267478
COSMOS 2550             
1 48865U 21056A   26127.26933700  .00004746  00000+0  14991-3 0  9990
2 48865  67.1429 223.6796 0008520 268.2526  91.7652 15.33846630272441
STARLINK-3004           
1 48880U 21059B   26127.25003472  .00925456  00000+0  12380-1 0  9991
2 48880  97.6598 254.4011 0001205  94.4676  16.6641 15.55710624  5796
STARLINK-3005           
1 48881U 21059C   26127.26965374  .00000109  00000+0  13105-4 0  9999
2 48881  97.6586 253.0233 0001847  85.3371 274.8064 15.01258306267598
TYVAK-0173              
1 48892U 21059P   26127.20839745  .00001649  00000+0  21302-3 0  9994
2 48892  96.0077 213.7538 0009874 157.9415 202.2230 14.81752803262179
MANDRAKE 2 ABLE         
1 48907U 21059AE  26127.03058484  .00017032  00000+0  27087-3 0  9994
2 48907  97.7051 313.7300 0006166 134.8974 225.2780 15.53364980270730
MANDRAKE 2 BAKER        
1 48908U 21059AF  26127.26982553  .00020397  00000+0  27814-3 0  9999
2 48908  97.7024 316.5869 0004827 131.1696 228.9976 15.57539415270924
PACE-1                  
1 48909U 21059AG  26127.27776743  .00055617  00000+0  39354-3 0  9998
2 48909  97.6817 321.0118 0002992 115.1022 245.0552 15.73833629271358
YAM-3                   
1 48915U 21059AN  26127.08647261  .00009600  00000+0  18769-3 0  9994
2 48915  97.7000 311.3868 0006240 135.4107 224.7645 15.47658783270637
ICEYE-X11               
1 48918U 21059AR  26127.27686380  .00128468  00000+0  52082-3 0  9993
2 48918  97.6391 321.5183 0004276 123.8895 236.2783 15.85914701271489
FARADAY_PHOENIX         
1 48924U 21059AX  26127.26377100  .00077770  00000+0  64881-3 0  9995
2 48924  97.6867 321.0475 0005469 127.4104 232.7655 15.69813115271221
